[{"OBJECT_NAME":"OBJECT D","OBJECT_ID":"2024-153D","EPOCH":"2026-03-09T23:34:15.763296","MEAN_MOTION":15.24738931,"ECCENTRICITY":0.00026819,"INCLINATION":97.6632,"RA_OF_ASC_NODE":204.2425,"ARG_OF_PERICENTER":164.3,"MEAN_ANOMALY":195.8321,"EPHEMERIS_TYPE":0,"CLASSIFICATION_TYPE":"U","NORAD_CAT_ID":60748,"ELEMENT_SET_NO":999,"REV_AT_EPOCH":8471,"BSTAR":0.00086014823,"MEAN_MOTION_DOT":0.00021266,"MEAN_MOTION_DDOT":0},{"OBJECT_NAME":"COSMOS 252 DEB","OBJECT_ID":"1968-097ET","EPOCH":"2026-03-08T21:00:26.436672","MEAN_MOTION":13.95651289,"ECCENTRICITY":0.05801012,"INCLINATION":62.793,"RA_OF_ASC_NODE":17.3776,"ARG_OF_PERICENTER":65.663,"MEAN_ANOMALY":300.3848,"EPHEMERIS_TYPE":0,"CLASSIFICATION_TYPE":"U","NORAD_CAT_ID":19479,"ELEMENT_SET_NO":999,"REV_AT_EPOCH":87836,"BSTAR":0.0017136051,"MEAN_MOTION_DOT":9.921e-5,"MEAN_MOTION_DDOT":0}]
